OBJECTID *,Shape *,Field1,Name,State,SN,Adress,Phone,Website,Located,Function,County,LAT,LON,Watershed,BasinName
1,Point,0,Agency Rail LLC,illinois,IL,"Bloomington, Illinois 61701",1-309-828-8600,www.agrail.com,Located in McLean County,Grain Elevators,McLean,40.490883,-88.847333,Upper Mississippi,OilCrop_MissppRN
2,Point,1,Airial Construction,illinois,IL,"Glen Ellyn, Illinois 60137",1-630-682-5066,www.airialconstruction.com,Located in DuPage County,"Building Contractors, Construction Companies, Grain Elevators",DuPage,41.851961,-88.085602,Upper Mississippi,OilCrop_MissppRN
3,Point,2,"Alliance Builders And Construction, Inc.",illinois,IL,"Chicago, Illinois 60639",1-773-235-8765,www.alliance-building.com,Located in Cook County,"Builders and Contractors, Building and Home Construction, Building Contractors, Construction Companies, Design and Build Contractors, Grain Elevators, Home Improvement and Maintenance",Cook,41.840134,-87.816836,Upper Mississippi,OilCrop_MissppRN
4,Point,3,Artix Construction Inc,illinois,IL,"Schiller Park, Illinois 60176",1-847-366-7158,www.artixconstruction.com,Located in Cook County,"Bathroom Planning and Remodeling, Building Contractors, Construction Companies, Grain Elevators",Cook,41.840134,-87.816836,Upper Mississippi,OilCrop_MissppRN
5,Point,4,Assumption Cooperative Grain,illinois,IL,"Assumption, Illinois 62510",1-217-226-3213,acoop.com,Located in Christian County,Grain Elevators,Christian,39.545839,-89.277259,Upper Mississippi,OilCrop_MissppRN
6,Point,5,Atkinson Grain & Fertilizer,illinois,IL,"Atkinson, Illinois 61235",1-309-936-7177,atkinsongrain.com,Located in Henry County,Grain Elevators,Henry,41.353145,-90.131437,Upper Mississippi,OilCrop_MissppRN
7,Point,6,B A B Grain,illinois,IL,"Auburn, Illinois 62615",1-217-438-3316,babgrain.com,Located in Sangamon County,"Grain Bins, Grain Elevators",Sangamon,39.758174,-89.658883,Upper Mississippi,OilCrop_MissppRN
8,Point,7,Bridgeport Grain INC,illinois,IL,"Bridgeport, Illinois 62417",1-618-945-5711,bpgrain.com,Located in Lawrence County,Grain Elevators,Lawrence,38.719963,-87.726786,Ohio,OilCrop_OhioR
9,Point,8,Copper Construction Co,illinois,IL,"Bensenville, Illinois 60106",1-630-350-1535,www.copperconstructioncompany.com,Located in DuPage County,"Builders and Contractors, Building Contractors, Construction Companies, Construction Consulting and Management Services, Grain Elevators",DuPage,41.851961,-88.085602,Upper Mississippi,OilCrop_MissppRN
10,Point,9,Crea Construction,illinois,IL,"Chicago, Illinois 60601",1-312-371-3827,www.creagc.com,Located in Cook County,"Building Contractors, Construction Companies, Government Contractors, Grain Elevators",Cook,41.840134,-87.816836,Upper Mississippi,OilCrop_MissppRN
11,Point,10,Danvers Farmers Elevator,illinois,IL,"Danvers, Illinois 61732",1-309-963-4306,www.dfefarmpartners.com,Located in McLean County,Grain Elevators,McLean,40.490883,-88.847333,Upper Mississippi,OilCrop_MissppRN
12,Point,11,Donovan Farmers Cooperative,illinois,IL,"Donovan, Illinois 60931",1-815-486-7325,donovanfarmerscoop.com,Located in Iroquois County,"Agricultural Equipment and Supplies Retail, Farm Equipment and Supplies Dealers, Grain Elevators, Lawn and Garden Equipment and Supplies Retail, Lawn Care Supplies Retail",Iroquois,40.747251,-87.824344,Upper Mississippi,OilCrop_MissppRN
13,Point,12,Eminence Grain & Coal CO,illinois,IL,"Atlanta, Illinois 61723",1-217-648-2541,emgrain.com,Located in Logan County,Grain Elevators,Logan,40.124564,-89.367545,Upper Mississippi,OilCrop_MissppRN
14,Point,13,Farmers Grain Company Of Latham,illinois,IL,"Latham, Illinois 62543",1-217-674-3546,www.farmersgrainlatham.com,Located in Logan County,Grain Elevators,Logan,40.124564,-89.367545,Upper Mississippi,OilCrop_MissppRN
15,Point,14,Farmers Grain Service Inc,illinois,IL,"Grand Ridge, Illinois 61325",1-815-249-5515,farmersgrainservice.com,Located in La Salle County,Grain Elevators,La Salle,41.344002,-88.885951,Upper Mississippi,OilCrop_MissppRN
16,Point,15,Geneva Construction Co,illinois,IL,"Aurora, Illinois 60505",1-630-892-4357,genevaconstruction.net,Located in Kane County,"Building Contractors, Construction Companies, Government Contractors, Grain Elevators",Kane,41.938852,-88.428645,Upper Mississippi,OilCrop_MissppRN
17,Point,16,Goodwine Cooperative Grain Company,illinois,IL,"Milford, Illinois 60953",1-815-889-4422,www.goodwinecoop.com,Located in Iroquois County,Grain Elevators,Iroquois,40.747251,-87.824344,Upper Mississippi,OilCrop_MissppRN
18,Point,17,Goodwine Cooperative Grain Company,illinois,IL,"Goodwine, Illinois 60939",1-815-457-2880,goodwinecoop.com,Located in Iroquois County,Grain Elevators,Iroquois,40.747251,-87.824344,Upper Mississippi,OilCrop_MissppRN
19,Point,18,Grainland Cooperative,illinois,IL,"Eureka, Illinois 61530",1-309-467-2355,www.grainlandcooperative.com,Located in Woodford County,Grain Elevators,Woodford,40.788226,-89.211128,Upper Mississippi,OilCrop_MissppRN
20,Point,19,Grainland Elevator,illinois,IL,"Secor, Illinois 61771",1-309-744-2218,grainlandcooperative.com,Located in Woodford County,Grain Elevators,Woodford,40.788226,-89.211128,Upper Mississippi,OilCrop_MissppRN
21,Point,20,Grand Prairie Cooperative Inc,illinois,IL,"Ivesdale, Illinois 61851",1-217-564-2317,unitedprairiellc.com,Located in Champaign County,Grain Elevators,Champaign,40.140104,-88.199166,Ohio,OilCrop_OhioR
22,Point,21,Graymont Cooperative Association Grain ELEV,illinois,IL,"Graymont, Illinois 61743",1-815-743-5321,graymontcoop.com,Located in Livingston County,"Grain Elevators, Home Improvement and Maintenance, Home Improvement Stores",Livingston,40.891579,-88.557724,Upper Mississippi,OilCrop_MissppRN
23,Point,22,Hartsburg Grain Company,illinois,IL,"Hartsburg, Illinois 62643",1-217-642-5211,hartgrain.com,Located in Logan County,Grain Elevators,Logan,40.124564,-89.367545,Upper Mississippi,OilCrop_MissppRN
24,Point,23,Heartland Construction,illinois,IL,"Chicago, Illinois 60642",1-312-492-6500,thcgi.com,Located in Cook County,"Builders and Contractors, Building and Home Construction, Building Contractors, Construction Companies, Grain Elevators, Home Builders and Developers",Cook,41.840134,-87.816836,Upper Mississippi,OilCrop_MissppRN
25,Point,24,Hometeam Group Inc,illinois,IL,"La Grange, Illinois 60525",1-708-352-6400,hometeamgroupco.com,Located in Cook County,"Building Contractors, Building Remodeling and Repair Contractors, Construction Companies, Grain Elevators",Cook,41.840134,-87.816836,Upper Mississippi,OilCrop_MissppRN
26,Point,25,Hudson Grain Co,illinois,IL,"Hudson, Illinois 61748",1-309-726-1671,www.hudsongrain.com,Located in McLean County,Grain Elevators,McLean,40.490883,-88.847333,Upper Mississippi,OilCrop_MissppRN
27,Point,26,I D Construction,illinois,IL,"Crystal Lake, Illinois 60014",1-815-444-8058,www.bestchicagosiding.com,Located in McHenry County,"Building Contractors, Construction Companies, Grain Elevators",McHenry,42.324432,-88.452342,Upper Mississippi,OilCrop_MissppRN
28,Point,27,Jayco Construction,illinois,IL,"Springfield, Illinois 62707",1-217-522-8621,jaycoconstruction.net/,Located in Sangamon County,"Building Contractors, Construction Companies, Excavation Contractors, Grain Elevators, Wrecking and Demolition Contractors",Sangamon,39.758174,-89.658883,Upper Mississippi,OilCrop_MissppRN
29,Point,28,Jersey County Grain Company,illinois,IL,"Hardin, Illinois 62047",1-618-576-2519,www.jerseycountygrain.com,Located in Calhoun County,Grain Elevators,Calhoun,39.16925,-90.667537,Upper Mississippi,OilCrop_MissppRN
30,Point,29,K T Richards Construction,illinois,IL,"Homer Glen, Illinois 60491",1-708-966-2152,ktrichards.com,Located in Will County,"Building Contractors, Carpenters, Construction Companies, Grain Elevators",Will,41.44505,-87.978648,Upper Mississippi,OilCrop_MissppRN
31,Point,30,Kitchen Seed Co Inc,illinois,IL,"Pittsfield, Illinois 62363",1-217-285-9659,www.kitchenseed.com,Located in Pike County,Grain Elevators,Pike,39.622511,-90.886303,Upper Mississippi,OilCrop_MissppRN
32,Point,31,Koehl Brothers Inc,illinois,IL,"Fairbury, Illinois 61739",1-815-692-2326,koehlbros.com,Located in Livingston County,"Agricultural Equipment and Supplies Retail, Farm Equipment and Parts Wholesale and Manufacturers, Farm Equipment and Supplies Dealers, Grain and Feed Handling Equipment, Grain Elevators",Livingston,40.891579,-88.557724,Upper Mississippi,OilCrop_MissppRN
33,Point,32,Legend Exterior & Construction,illinois,IL,"Roselle, Illinois 60172",1-630-351-0656,www.legendexteriors.com,Located in DuPage County,"Building Contractors, Construction Companies, Grain Elevators, Roofing Contractors",DuPage,41.851961,-88.085602,Upper Mississippi,OilCrop_MissppRN
34,Point,33,Lincolnland Agri-Energy,illinois,IL,"Palestine, Illinois 62451",1-618-586-2321,www.lincolnlandagrienergy.com,Located in Crawford County,Grain Elevators,Crawford,39.002704,-87.759567,Ohio,OilCrop_OhioR
35,Point,34,Lumber 1 Construction,illinois,IL,"Chicago, Illinois 60618",1-773-290-1111,www.lumber1construction.com,Located in Cook County,"Building Contractors, Construction Companies, Grain Elevators",Cook,41.840134,-87.816836,Upper Mississippi,OilCrop_MissppRN
36,Point,35,Midwest Ingredients Inc,illinois,IL,"Princeville, Illinois 61559",1-309-385-1035,midwestingredients.com,Located in Peoria County,Grain Elevators,Peoria,40.788053,-89.759969,Upper Mississippi,OilCrop_MissppRN
37,Point,36,Monica Elevator CO,illinois,IL,"Princeville, Illinois 61559",1-309-385-4938,www.monicaelevator.com,Located in Peoria County,Grain Elevators,Peoria,40.788053,-89.759969,Upper Mississippi,OilCrop_MissppRN
38,Point,37,Northern Grain Marketing,illinois,IL,"Ohio, Illinois 61349",1-815-376-2411,www.northerngrainmarketing.com,Located in Bureau County,Grain Elevators,Bureau,41.404133,-89.528673,Upper Mississippi,OilCrop_MissppRN
39,Point,38,P&K Quality Construction,illinois,IL,"Pana, Illinois 62557",1-217-820-2224,www.pkqualityconstruction.com/,Located in Christian County,"Building Contractors, Construction Companies, Deck Construction and Maintenance Commercial and Industrial, Garage Builders, Grain Elevators, Patio, Porch, Deck and Gazebo Builders",Christian,39.545839,-89.277259,Upper Mississippi,OilCrop_MissppRN
40,Point,39,Path Construction Co Inc,illinois,IL,"Arlington Heights, Illinois 60005",1-847-342-1188,pathcc.com,Located in Cook County,"Builders and Contractors, Building and Home Construction, Building Contractors, Construction Companies, Government Contractors, Grain Elevators, Home Builders and Developers",Cook,41.840134,-87.816836,Upper Mississippi,OilCrop_MissppRN
41,Point,40,Prentice Farmers Elevator,illinois,IL,"Ashland, Illinois 62612",1-217-476-3516,www.prenticeelevator.com,Located in Cass County,"Agricultural Equipment and Supplies Retail, Farm Equipment and Supplies Dealers, Grain Elevators, Lawn and Garden Equipment and Supplies Retail",Cass,39.973553,-90.247407,Upper Mississippi,OilCrop_MissppRN
42,Point,41,"R.A. James Construction, Inc.",illinois,IL,"Berwyn, Illinois 60402",1-708-788-3033,rajames.com,Located in Cook County,"Building and Home Construction, Building Contractors, Construction Companies, Grain Elevators",Cook,41.840134,-87.816836,Upper Mississippi,OilCrop_MissppRN
43,Point,42,Reyes Group Limited,illinois,IL,"Markham, Illinois 60428",1-708-596-7100,www.reyesgroup.com,Located in Cook County,"Building Contractors, Construction Companies, Government Contractors, Grain Elevators",Cook,41.840134,-87.816836,Upper Mississippi,OilCrop_MissppRN
44,Point,43,Roanoke Farmers Association,illinois,IL,"Roanoke, Illinois 61561",1-309-923-3841,www.roanokefarmers.com,Located in Woodford County,Grain Elevators,Woodford,40.788226,-89.211128,Upper Mississippi,OilCrop_MissppRN
45,Point,44,Robert P Johnson Grain Company,illinois,IL,"Waverly, Illinois 62692",1-217-435-2361,johnsongrain.com,Located in Morgan County,Grain Elevators,Morgan,39.715563,-90.201473,Upper Mississippi,OilCrop_MissppRN
46,Point,45,Rock River Lumber & Grain Company,illinois,IL,"Prophetstown, Illinois 61277",1-815-537-5615,rockriverag.com,Located in Whiteside County,"Agricultural Equipment and Supplies Retail, Farm Equipment and Supplies Dealers, Grain Elevators, Home Improvement and Maintenance, Home Improvement Stores, Lawn and Garden Equipment and Supplies Retail, Lawn Care Supplies Retail",Whiteside,41.756286,-89.9141,Upper Mississippi,OilCrop_MissppRN
47,Point,46,Shore Sales CO Inc,illinois,IL,"Rantoul, Illinois 61866",1-217-892-2544,www.moisturetesters.com,Located in Champaign County,"Building and Home Construction, Grain Elevator Equipment and Builders, Grain Elevators",Champaign,40.140104,-88.199166,Ohio,OilCrop_OhioR
48,Point,47,Siemer Milling Company,illinois,IL,"Teutopolis, Illinois 62467",1-217-857-3131,siemermilling.com,Located in Effingham County,Grain Elevators,Effingham,39.059805,-88.589866,Ohio,OilCrop_OhioR
49,Point,48,Stanford Grain Company,illinois,IL,"Stanford, Illinois 61774",1-309-379-2141,www.stanfordgrain.com,Located in McLean County,Grain Elevators,McLean,40.490883,-88.847333,Upper Mississippi,OilCrop_MissppRN
50,Point,49,Top Ag Cooperative,illinois,IL,"Pierron, Illinois 62273",1-618-654-9804,www.topag.net,Located in Bond County,Grain Elevators,Bond,38.88684,-89.435552,Upper Mississippi,OilCrop_MissppRN
51,Point,50,Top Flight Grain,illinois,IL,"Monticello, Illinois 61856",1-217-762-2163,topflightgrain.com,Located in Piatt County,Grain Elevators,Piatt,40.010348,-88.591112,Upper Mississippi,OilCrop_MissppRN
52,Point,51,Tremont Cooperative Grain Company,illinois,IL,"Tremont, Illinois 61568",1-309-925-4981,tremont.coop,Located in Tazewell County,Grain Elevators,Tazewell,40.507537,-89.513424,Upper Mississippi,OilCrop_MissppRN
53,Point,52,Tri Central Cooperative - Main Ofc,illinois,IL,"Ashkum, Illinois 60911",1-815-698-2327,www.tricentralcoop.com,Located in Iroquois County,Grain Elevators,Iroquois,40.747251,-87.824344,Upper Mississippi,OilCrop_MissppRN
54,Point,53,Twomey Company,illinois,IL,"Smithshire, Illinois 61478",1-309-325-7100,www.twomeyco.com,Located in Warren County,"Grain Elevators, Lawn and Garden Equipment and Supplies Retail, Lawn Care Supplies Retail",Warren,40.848824,-90.615017,Upper Mississippi,OilCrop_MissppRN
55,Point,54,Union Iron Works Inc,illinois,IL,"Decatur, Illinois 62521",1-217-429-5148,unionironworks.com,Located in Macon County,"Agricultural Equipment and Supplies Retail, Farm Equipment and Supplies Dealers, Grain Elevators, Industrial Equipment and Supplies Dealers, Industrial Equipment and Supplies Wholesale and Manufacturers",Macon,39.859997,-88.961566,Upper Mississippi,OilCrop_MissppRN
56,Point,55,US NATIONAL CONSTRUCTION,illinois,IL,"Chicago, Illinois 60623",1-312-724-6002,www.usnationalconstruction.com,Located in Cook County,"Building Contractors, Construction Companies, Design and Build Contractors, Grain Elevators",Cook,41.840134,-87.816836,Upper Mississippi,OilCrop_MissppRN
57,Point,56,Wesemann Feeds,illinois,IL,"Genoa, Illinois 60135",1-815-784-5054,www.wesemannfeeds.com,Located in DeKalb County,Grain Elevators,DeKalb,41.893537,-88.77032,Upper Mississippi,OilCrop_MissppRN
58,Point,57,Bazooka-Farmstar Inc,iowa,IA,"Washington, Iowa 52353",1-319-653-5080,www.bazookafarmstar.com,Located in Washington County,"Agricultural Equipment and Supplies Retail, Farm Equipment and Supplies Dealers, Grain Elevators",Washington,41.335614,-91.717867,Upper Mississippi,OilCrop_MissppRN
59,Point,58,Buckingham Co-Operative Company,iowa,IA,"Buckingham, Iowa 50612",1-319-478-2331,buckingham.coop,Located in Tama County,"Agricultural Equipment and Supplies Retail, Farm Equipment and Supplies Dealers, Grain Elevators",Tama,42.079818,-92.532561,Upper Mississippi,OilCrop_MissppRN
60,Point,59,Clinton Feed & Grain,iowa,IA,"Clinton, Iowa 52732",1-563-242-3350,www.clintonfeed.com,Located in Clinton County,"Grain Elevators, Lawn and Garden Equipment and Supplies Retail, Lawn Care Supplies Retail",Clinton,41.898036,-90.531972,Upper Mississippi,OilCrop_MissppRN
61,Point,60,Dandea Enterprises Inc,iowa,IA,"Coggon, Iowa 52218",1-319-435-2265,www.dandea.com,Located in Linn County,"Grain Elevators, Metal Fabricators, Metal Products Wholesale and Manufacturers, Metal Products, Metals, Moving and Storage Equipment and Supplies Retail, Moving and Storage, Sheet Metal Equipment and Supplies Wholesale and Manufacturers",Linn,42.078966,-91.599033,Upper Mississippi,OilCrop_MissppRN
62,Point,61,Dunkerton Cooperative,iowa,IA,"Dunkerton, Iowa 50626",1-319-822-4201,www.dunkertoncoop.com,Located in Black Hawk County,"Fuels Retail, Grain Elevators, Propane and Natural Gas",Black Hawk,42.470098,-92.308832,Upper Mississippi,OilCrop_MissppRN
63,Point,62,East Central Iowa Cooperative,iowa,IA,"Cedar Falls, Iowa 50613",1-319-266-0775,www.ecicoop.com,Located in Black Hawk County,Grain Elevators,Black Hawk,42.470098,-92.308832,Upper Mississippi,OilCrop_MissppRN
64,Point,63,East Central Iowa Cooperative,iowa,IA,"Jesup, Iowa 50648",1-319-827-6226,ecicoop.com,Located in Buchanan County,"Agricultural Equipment and Supplies Retail, Farm Equipment and Supplies Dealers, Grain Elevators, Home Improvement and Maintenance, Lawn and Garden Equipment and Supplies Retail, Lawn Care Supplies Retail, Pest Control Equipment and Supplies Retail, Pest Control Services, Pesticides",Buchanan,42.470814,-91.837854,Upper Mississippi,OilCrop_MissppRN
65,Point,64,Farmers Cooperative,iowa,IA,"Radcliffe, Iowa 50230",1-515-899-2101,www.radcliffecoop.com,Located in Hardin County,"Agricultural Equipment and Supplies Retail, Farm Equipment and Supplies Dealers, Grain Elevators, Lawn and Garden Equipment and Supplies Retail",Hardin,42.383881,-93.240405,Upper Mississippi,OilCrop_MissppRN
66,Point,65,Farmers Elevator & Exchange,iowa,IA,"Wapello, Iowa 52653",1-319-523-5351,farmerseande.com,Located in Louisa County,Grain Elevators,Louisa,41.218528,-91.259615,Upper Mississippi,OilCrop_MissppRN
67,Point,66,Gold Eagle Cooperative,iowa,IA,"Wesley, Iowa 50483",1-515-679-4272,www.goldeaglecoop.com,Located in Kossuth County,"Grain Elevators, Lawn and Garden Equipment and Supplies Retail",Kossuth,43.204203,-94.206724,Upper Mississippi,OilCrop_MissppRN
68,Point,67,Gold Eagle Cooperative,iowa,IA,"Eagle Grove, Iowa 50533",1-515-448-4775,www.goldeaglecoop.com,Located in Wright County,Grain Elevators,Wright,42.733092,-93.735145,Upper Mississippi,OilCrop_MissppRN
69,Point,68,Gold Eagle Cooperative,iowa,IA,"Livermore, Iowa 50558",1-515-379-1843,goldeaglecoop.com,Located in Humboldt County,Grain Elevators,Humboldt,42.776468,-94.207168,Upper Mississippi,OilCrop_MissppRN
70,Point,69,Gold-Eagle Cooperative,iowa,IA,"Goldfield, Iowa 50542",1-515-825-3161,goldeaglecoop.com,Located in Wright County,Grain Elevators,Wright,42.733092,-93.735145,Upper Mississippi,OilCrop_MissppRN
71,Point,70,Heartland Cooperative,iowa,IA,"West Des Moines, Iowa 50266",1-515-225-1334,www.heartlandcoop.com,Located in Polk County,Grain Elevators,Polk,41.685507,-93.573539,Upper Mississippi,OilCrop_MissppRN
72,Point,71,JUHL Feed Store,iowa,IA,"Dana, Iowa 50064",1-515-738-5121,www.juhlfeed.com,Located in Greene County,"Agricultural Equipment and Supplies Retail, Chemicals Dealers, Farm Equipment and Supplies Dealers, Grain Elevators, Lawn and Garden Equipment and Supplies Retail, Lawn Care Supplies Retail",Greene,42.036249,-94.396842,Upper Mississippi,OilCrop_MissppRN
73,Point,72,Liquid Grow Tri Oak,iowa,IA,"Morning Sun, Iowa 52640",1-319-868-7931,www.trioak.com,Located in Louisa County,"Farm Equipment and Supplies Dealers, Grain Elevators",Louisa,41.218528,-91.259615,Upper Mississippi,OilCrop_MissppRN
74,Point,73,North Central Cooperative,iowa,IA,"Clarion, Iowa 50525",1-515-532-2881,nccoop.com,Located in Wright County,Grain Elevators,Wright,42.733092,-93.735145,Upper Mississippi,OilCrop_MissppRN
75,Point,74,Professional Cooperative,iowa,IA,"Manson, Iowa 50563",1-712-469-3388,procooperative.com,Located in Calhoun County,Grain Elevators,Calhoun,42.385193,-94.640411,Upper Mississippi,OilCrop_MissppRN
76,Point,75,Pruess Elevator Inc,iowa,IA,"Lowden, Iowa 52255",1-563-944-5580,pruesselevator.com,Located in Cedar County,Grain Elevators,Cedar,41.772328,-91.132438,Upper Mississippi,OilCrop_MissppRN
77,Point,76,Quality AG Service,iowa,IA,"Albia, Iowa 52531",1-641-932-2637,qualityag.com,Located in Monroe County,"Agricultural Equipment and Supplies Retail, Farm Equipment and Supplies Dealers, Garden Centers, Grain Elevators, Lawn and Garden Equipment and Supplies Retail, Nurseries, Plants Retail",Monroe,41.029803,-92.869011,Upper Mississippi,OilCrop_MissppRN
78,Point,77,Reiff Grain & Feed Inc,iowa,IA,"Fairfield, Iowa 52556",1-641-472-4136,fairfieldag.com,Located in Jefferson County,"Agricultural Equipment and Supplies Retail, Farm Equipment and Supplies Dealers, Grain Elevators",Jefferson,41.031777,-91.948896,Upper Mississippi,OilCrop_MissppRN
79,Point,78,Shellsburg Elevator,iowa,IA,"Shellsburg, Iowa 52332",1-319-436-2251,www.shellsburgelevator.com,Located in Benton County,Grain Elevators,Benton,42.080194,-92.06575,Upper Mississippi,OilCrop_MissppRN
80,Point,79,State Line Cooperative Elevator,iowa,IA,"Fenton, Iowa 50539",1-515-889-2251,www.statelinecoop.com,Located in Kossuth County,Grain Elevators,Kossuth,43.204203,-94.206724,Upper Mississippi,OilCrop_MissppRN
81,Point,80,Tama Benton Cooperative Company,iowa,IA,"Dysart, Iowa 52224",1-319-476-3666,www.tamabentoncoop.com,Located in Tama County,Grain Elevators,Tama,42.079818,-92.532561,Upper Mississippi,OilCrop_MissppRN
82,Point,81,Tri-States Grain Conditioning,iowa,IA,"Spirit Lake, Iowa 51360",1-712-336-0199,www.tsgcinc.com,Located in Dickinson County,"Agricultural Equipment and Supplies Retail, Building and Home Construction, Farm Equipment and Parts Wholesale and Manufacturers, Farm Equipment and Supplies Dealers, Grain and Feed Handling Equipment, Grain Elevator Equipment and Builders, Grain Elevators",Dickinson,43.377919,-95.150889,Missouri,OilCrop_MissouriR
83,Point,82,Agassiz Valley Grain,minnesota,MN,"Barnesville, Minnesota 56514",1-218-493-4481,www.agassizvalleygrain.com,Located in Clay County,Grain Elevators,Clay,46.892358,-96.490659,Nelson,OilCrop_NelsonR
84,Point,83,All American Cooperative,minnesota,MN,"Eyota, Minnesota 55934",1-507-545-2921,www.allamericancoop.com,Located in Olmsted County,"Grain Elevators, Lawn and Garden Equipment and Supplies Retail",Olmsted,44.003767,-92.401759,Upper Mississippi,OilCrop_MissppRN
85,Point,84,All American Cooperative,minnesota,MN,"Stewartville, Minnesota 55976",1-507-533-4222,allamericancoop.com,Located in Olmsted County,"Agricultural Equipment and Supplies Retail, Farm Equipment and Supplies Dealers, Grain Elevators, Lawn and Garden Equipment and Supplies Retail",Olmsted,44.003767,-92.401759,Upper Mississippi,OilCrop_MissppRN
86,Point,85,All-American Cooperative Viola,minnesota,MN,"Eyota, Minnesota 55934",1-507-876-2263,www.allamericancoop.com,Located in Olmsted County,"Agricultural Equipment and Supplies Retail, Farm Equipment and Supplies Dealers, Grain Elevators",Olmsted,44.003767,-92.401759,Upper Mississippi,OilCrop_MissppRN
87,Point,86,Bellingham Fertilizer Plant,minnesota,MN,"Bellingham, Minnesota 56212",1-320-568-2216,www.bellinghamfarmerscoop.com,Located in Lac Qui Parle County,Grain Elevators,Lac Qui Parle,44.995482,-96.173524,Upper Mississippi,OilCrop_MissppRN
88,Point,87,Bird Island Bean Company,minnesota,MN,"Bird Island, Minnesota 55310",1-320-365-3070,www.bibcllc.com,Located in Renville County,Grain Elevators,Renville,44.726822,-94.947128,Upper Mississippi,OilCrop_MissppRN
89,Point,88,C-W Valley Cooperative,minnesota,MN,"Wolverton, Minnesota 56594",1-218-995-2565,www.cwvalley.com,Located in Wilkin County,Grain Elevators,Wilkin,46.357069,-96.468335,Nelson,OilCrop_NelsonR
90,Point,89,C-W Valley Cooperative - Comstock Elevator,minnesota,MN,"Wolverton, Minnesota 56594",1-218-585-4616,www.cwvalley.com,Located in Wilkin County,Grain Elevators,Wilkin,46.357069,-96.468335,Nelson,OilCrop_NelsonR
91,Point,90,Canby Farmers Grain Company,minnesota,MN,"Canby, Minnesota 56220",1-507-223-7236,www.cfgrain.com,Located in Yellow Medicine County,"Agricultural Equipment and Supplies Retail, Farm Equipment and Supplies Dealers, Grain Elevators",Yellow Medicine,44.716256,-95.868371,Upper Mississippi,OilCrop_MissppRN
92,Point,91,Dawson Grain Cooperative,minnesota,MN,"Dawson, Minnesota 56232",1-320-769-4730,dawsongrain.com,Located in Lac Qui Parle County,"Building and Home Construction, Grain Elevator Equipment and Builders, Grain Elevators",Lac Qui Parle,44.995482,-96.173524,Upper Mississippi,OilCrop_MissppRN
93,Point,92,Elbow Lake Cooperative Grain Company,minnesota,MN,"Elbow Lake, Minnesota 56531",1-218-685-5331,www.elbowlakecoopgrain.com,Located in Grant County,"Grain Elevators, Lawn and Garden Equipment and Supplies Retail, Lawn Care Supplies Retail",Grant,45.934059,-96.012183,Nelson,OilCrop_NelsonR
94,Point,93,Farm Service Elevator,minnesota,MN,"Willmar, Minnesota 56201",1-320-235-8870,willmarpoultry.com,Located in Kandiyohi County,Grain Elevators,Kandiyohi,45.152377,-95.004726,Upper Mississippi,OilCrop_MissppRN
95,Point,94,Farmers Cooperative of Hanska - Main Office - Hanska,minnesota,MN,"Hanska, Minnesota 56041",1-507-439-6244,www.hanskaco.com,Located in Brown County,Grain Elevators,Brown,44.242145,-94.727601,Upper Mississippi,OilCrop_MissppRN
96,Point,95,Farmers Mill & Elevator Inc,minnesota,MN,"Castle Rock, Minnesota 55010",1-507-645-5648,assurancefeed.com,Located in Dakota County,"Agricultural Equipment and Supplies Retail, Farm Equipment and Supplies Dealers, Grain Elevators, Lawn and Garden Equipment and Supplies Retail",Dakota,44.671878,-93.065442,Upper Mississippi,OilCrop_MissppRN
97,Point,96,Forsbergs Inc,minnesota,MN,"Thief River Falls, Minnesota 56701",1-218-681-1927,www.forsbergs.com,Located in Pennington County,"Building and Home Construction, Grain Elevator Equipment and Builders, Grain Elevators, Importers, Industrial Equipment and Supplies Dealers",Pennington,48.06624,-96.036709,Nelson,OilCrop_NelsonR
98,Point,97,Humboldt-St Vincent Elevator,minnesota,MN,"Humboldt, Minnesota 56731",1-218-379-3121,www.humboldtelev.com,Located in Kittson County,"Agricultural Equipment and Supplies Retail, Farm Equipment and Supplies Dealers, Grain Elevators, Lawn and Garden Equipment and Supplies Retail, Lawn Care Supplies Retail",Kittson,48.776639,-96.782876,Nelson,OilCrop_NelsonR
99,Point,98,K & S Millwrights Inc,minnesota,MN,"Buffalo Lake, Minnesota 55314",1-320-833-2228,www.ksmillwrights.com,Located in Renville County,"Agricultural Equipment and Supplies Retail, Building and Home Construction, Farm Equipment and Parts Wholesale and Manufacturers, Farm Equipment and Supplies Dealers, Grain and Feed Handling Equipment, Grain Bins, Grain Elevator Equipment and Builders, Grain Elevators",Renville,44.726822,-94.947128,Upper Mississippi,OilCrop_MissppRN
100,Point,99,Munson Lakes Nutrition,minnesota,MN,"Howard Lake, Minnesota 55349",1-320-543-2561,www.munsonlakes.com,Located in Wright County,"Agricultural Equipment and Supplies Retail, Farm Equipment and Supplies Dealers, Grain Elevators",Wright,45.173958,-93.963063,Upper Mississippi,OilCrop_MissppRN
101,Point,100,Prairie Grain Partners LLC,minnesota,MN,"Clarkfield, Minnesota 56223",1-320-669-7501,prairiegrainpartners.com,Located in Yellow Medicine County,Grain Elevators,Yellow Medicine,44.716256,-95.868371,Upper Mississippi,OilCrop_MissppRN
102,Point,101,Prairie Lakes Cooperative Elevator,minnesota,MN,"Glenwood, Minnesota 56334",1-320-634-3028,www.prairielakescoop.com,Located in Pope County,"Agricultural Equipment and Supplies Retail, Farm Equipment and Supplies Dealers, Grain Elevators",Pope,45.586009,-95.444511,Upper Mississippi,OilCrop_MissppRN
103,Point,102,Prinsburg Farmers Cooperative,minnesota,MN,"Prinsburg, Minnesota 56281",1-320-978-8100,www.prccoop.com,Located in Kandiyohi County,"Agricultural Equipment and Supplies Retail, Farm Equipment and Supplies Dealers, Grain Elevators, Pest Control Equipment and Supplies Retail, Pest Control Services",Kandiyohi,45.152377,-95.004726,Upper Mississippi,OilCrop_MissppRN
104,Point,103,Profile Industries Inc,minnesota,MN,"Rogers, Minnesota 55374",1-763-428-5858,www.profile-ind.com,Located in Hennepin County,"General Merchandise Wholesale, Grain Elevators",Hennepin,45.004583,-93.476896,Upper Mississippi,OilCrop_MissppRN
105,Point,104,Rapat Corporation,minnesota,MN,"Hawley, Minnesota 56549",1-218-483-3344,rapat.com,Located in Clay County,"Grain Elevators, Industrial Equipment and Supplies Wholesale and Manufacturers, Metals",Clay,46.892358,-96.490659,Nelson,OilCrop_NelsonR
106,Point,105,Red River Grain Company,minnesota,MN,"Breckenridge, Minnesota 56520",1-218-643-3738,www.redrivergrain.com,Located in Wilkin County,Grain Elevators,Wilkin,46.357069,-96.468335,Nelson,OilCrop_NelsonR
107,Point,106,River Region Cooperative - Main Office,minnesota,MN,"Sleepy Eye, Minnesota 56085",1-507-794-3031,www.riverregioncoop.com,Located in Brown County,"Grain Elevators, Lawn and Garden Equipment and Supplies Retail, Lawn Care Supplies Retail",Brown,44.242145,-94.727601,Upper Mississippi,OilCrop_MissppRN
108,Point,107,South Central Grain & Energy,minnesota,MN,"Hector, Minnesota 55342",1-320-848-2273,scgemn.com,Located in Renville County,"Auto Service and Repair, Fuel Oils, Gas Stations, Grain Elevators, Petroleum Oils Retail, Petroleum Products and Equipment",Renville,44.726822,-94.947128,Upper Mississippi,OilCrop_MissppRN
109,Point,108,UAS Service Corporation,minnesota,MN,"Hawley, Minnesota 56549",1-218-483-3551,uasservice.com,Located in Clay County,"Building and Home Construction, Grain Elevator Equipment and Builders, Grain Elevators",Clay,46.892358,-96.490659,Nelson,OilCrop_NelsonR
110,Point,109,Van AHN & CO Inc,minnesota,MN,"Alexandria, Minnesota 56308",1-320-762-1104,www.vanahnco.com,Located in Douglas County,Grain Elevators,Douglas,45.933732,-95.453537,Upper Mississippi,OilCrop_MissppRN
111,Point,110,Waconia Manufacturing,minnesota,MN,"Waconia, Minnesota 55387",1-952-442-2115,waconiamfg.com,Located in Carver County,"Grain Elevators, Industrial Equipment and Supplies Dealers, Industrial Equipment and Supplies Wholesale and Manufacturers",Carver,44.820798,-93.802607,Upper Mississippi,OilCrop_MissppRN
112,Point,111,Western Consolidated Cooperative,minnesota,MN,"Holloway, Minnesota 56249",1-320-394-2171,west-con.com,Located in Swift County,"Grain Elevators, Lawn and Garden Equipment and Supplies Retail",Swift,45.282694,-95.681449,Upper Mississippi,OilCrop_MissppRN
113,Point,112,Boyd Grain Inc,indiana,IN,"Washington, Indiana 47501",1-812-254-5599,boydgrain.com,Located in Daviess County,"Agricultural Equipment and Supplies Retail, Farm Equipment and Supplies Dealers, Freight and Cargo Transport, Freight Trucking, Grain Elevators, Trucking Companies",Daviess,38.702413,-87.07205,Ohio,OilCrop_OhioR
114,Point,113,Riley Equipment Inc,indiana,IN,"Vincennes, Indiana 47591",1-812-886-5500,www.rileyequipment.com,Located in Knox County,"Agricultural Equipment and Supplies Retail, Building and Home Construction, Farm Equipment and Supplies Dealers, Grain Elevator Equipment and Builders, Grain Elevators, Industrial Equipment and Supplies Dealers",Knox,38.689077,-87.41803,Ohio,OilCrop_OhioR
115,Point,114,Agrex Inc,nebraska,NE,"Superior, Nebraska 68978",1-402-879-4702,www.agrexinc.com,Located in Nuckolls County,Grain Elevators,Nuckolls,40.176396,-98.047196,Missouri,OilCrop_MissouriR
116,Point,115,Batterton Waterproofing Inc,nebraska,NE,"York, Nebraska 68467",1-402-362-3855,battertonwaterproofing.com,Located in York County,"Builders and Contractors, Building and Home Construction, Grain Elevator Equipment and Builders, Grain Elevators",York,40.872749,-97.597126,Missouri,OilCrop_MissouriR
117,Point,116,Central Valley AG,nebraska,NE,"Hooper, Nebraska 68031",1-402-654-3367,cvacoop.com,Located in Dodge County,"Grain Elevators, Lawn and Garden Equipment and Supplies Retail",Dodge,41.577912,-96.654014,Missouri,OilCrop_MissouriR
118,Point,117,Cooperative Supply,nebraska,NE,"Leigh, Nebraska 68643",1-402-487-2295,coopsupply.com,Located in Colfax County,"Agricultural Equipment and Supplies Retail, Farm Equipment and Supplies Dealers, Grain Elevators",Colfax,41.574018,-97.086476,Missouri,OilCrop_MissouriR
119,Point,118,Cooperative Supply Inc,nebraska,NE,"Dodge, Nebraska 68633",1-402-693-2261,www.coopsupply.com,Located in Dodge County,"Building Materials and Supplies Dealers, Grain Elevators, Saw Sales, Sharpening and Repair",Dodge,41.577912,-96.654014,Missouri,OilCrop_MissouriR
120,Point,119,Cooperative Supply Inc,nebraska,NE,"Dodge, Nebraska 68633",1-402-693-2222,www.coopsupply.com,Located in Dodge County,Grain Elevators,Dodge,41.577912,-96.654014,Missouri,OilCrop_MissouriR
121,Point,120,Country Partners Cooperative,nebraska,NE,"Albion, Nebraska 68620",1-402-395-2139,countrypartnerscoop.com,Located in Boone County,"Agricultural Equipment and Supplies Retail, Farm Equipment and Supplies Dealers, Grain Elevators",Boone,41.706791,-98.067249,Missouri,OilCrop_MissouriR
122,Point,121,Country Partners Cooperative Company,nebraska,NE,"Primrose, Nebraska 68655",1-308-396-1650,countrypartnerscoop.com,Located in Boone County,Grain Elevators,Boone,41.706791,-98.067249,Missouri,OilCrop_MissouriR
123,Point,122,Crossroads Cooperative Association,nebraska,NE,"Sidney, Nebraska 69162",1-308-884-2238,www.crossroadscoop.com,Located in Cheyenne County,Grain Elevators,Cheyenne,41.219774,-102.994967,Missouri,OilCrop_MissouriR
124,Point,123,Crossroads Cooperative Association,nebraska,NE,"Sidney, Nebraska 69162",1-308-254-4230,crossroadscoop.com,Located in Cheyenne County,Grain Elevators,Cheyenne,41.219774,-102.994967,Missouri,OilCrop_MissouriR
125,Point,124,CTEC Inc,nebraska,NE,"York, Nebraska 68467",1-402-362-5951,ctecconcrete.com,Located in York County,"Building and Home Construction, Grain Elevator Equipment and Builders, Grain Elevators",York,40.872749,-97.597126,Missouri,OilCrop_MissouriR
126,Point,125,Grain States Soya Inc,nebraska,NE,"West Point, Nebraska 68788",1-402-372-2429,www.soybest.com,Located in Cuming County,"Agricultural Equipment and Supplies Retail, Farm Equipment and Supplies Dealers, Grain Elevators",Cuming,41.916406,-96.787394,Missouri,OilCrop_MissouriR
127,Point,126,J E Meuret Grain Company,nebraska,NE,"Brunswick, Nebraska 68720",1-402-842-2515,jemeuretgrain.com,Located in Antelope County,Grain Elevators,Antelope,42.176915,-98.066694,Missouri,OilCrop_MissouriR
128,Point,127,Kaapa Ethanol LLC,nebraska,NE,"Minden, Nebraska 68959",1-308-743-2217,kaapaethanol.com,Located in Kearney County,Grain Elevators,Kearney,40.50671,-98.948023,Missouri,OilCrop_MissouriR
129,Point,128,Kaapa Grains,nebraska,NE,"Elm Creek, Nebraska 68836",1-308-856-4643,kaapagrains.com,Located in Buffalo County,Grain Elevators,Buffalo,40.855162,-99.074987,Missouri,OilCrop_MissouriR
130,Point,129,Midwest Farmers Cooperative,nebraska,NE,"Elmwood, Nebraska 68349",1-402-994-2585,midwestfarmers.coop,Located in Cass County,Grain Elevators,Cass,40.909719,-96.140884,Missouri,OilCrop_MissouriR
131,Point,130,Pride Grain,nebraska,NE,"Long Pine, Nebraska 69217",1-402-273-4468,www.pridegrain.com,Located in Brown County,Grain Elevators,Brown,42.430005,-99.92951,Missouri,OilCrop_MissouriR
132,Point,131,Shickley Grain CO Inc,nebraska,NE,"Shickley, Nebraska 68436",1-402-627-2425,shickleygrain.com,Located in Fillmore County,"Grain Elevators, Lawn and Garden Equipment and Supplies Retail, Lawn Care Supplies Retail",Fillmore,40.524664,-97.596508,Missouri,OilCrop_MissouriR
133,Point,132,Andersons Investment Service,ohio,OH,"Maumee, Ohio 43537",1-419-891-6358,andersonsinc.com,Located in Lucas County,"Financial Services, Grain Elevators, Homes and Residential Real Estate, Housing Consultants, Railroad Car Leasing, Railroads, Real Estate Agencies and Brokerage, Real Estate Consultants",Lucas,41.61992,-83.658294,Great Lakes,OilCrop_GreatLakes
134,Point,133,Creamer Metal Products Inc,ohio,OH,"London, Ohio 43140",1-740-852-1752,www.creamermetal.com,Located in Madison County,"Agricultural Equipment and Supplies Retail, Building and Home Construction, Exporters, Farm Equipment and Supplies Dealers, Grain Elevator Equipment and Builders, Grain Elevators",Madison,39.894025,-83.400207,Ohio,OilCrop_OhioR
135,Point,134,Deerfield Farms Service,ohio,OH,"Deerfield, Ohio 44411",1-330-584-4715,deerfieldfarms.com,Located in Portage County,"Grain Elevators, Lawn and Garden Equipment and Supplies Retail, Lawn Care Supplies Retail",Portage,41.167681,-81.197405,Ohio,OilCrop_OhioR
136,Point,135,Elgin Service Center,ohio,OH,"Pioneer, Ohio 43554",1-419-485-8593,kbuildings.com,Located in Williams County,"Grain Elevator Equipment and Builders, Grain Elevators",Williams,41.560323,-84.588163,Great Lakes,OilCrop_GreatLakes
137,Point,136,Farmers Elevator Grain & SUPL,ohio,OH,"New Bavaria, Ohio 43548",1-419-653-4132,www.thefarmerselevator.com,Located in Henry County,Grain Elevators,Henry,41.333886,-84.068235,Great Lakes,OilCrop_GreatLakes
138,Point,137,Gerald Grain Center,ohio,OH,"Napoleon, Ohio 43545",1-419-598-8015,www.geraldgrain.com,Located in Henry County,Grain Elevators,Henry,41.333886,-84.068235,Great Lakes,OilCrop_GreatLakes
139,Point,138,Hicksville Grain Company,ohio,OH,"Hicksville, Ohio 43526",1-419-542-7021,www.hicksvillegrain.com,Located in Defiance County,"Grain Elevators, Lawn and Garden Equipment and Supplies Retail, Lawn Care Supplies Retail",Defiance,41.323924,-84.49048,Great Lakes,OilCrop_GreatLakes
140,Point,139,Jewell Grain Company,ohio,OH,"Defiance, Ohio 43512",1-419-497-2101,jewellgrain.com,Located in Defiance County,"Grain Elevators, Lawn and Garden Equipment and Supplies Retail, Lawn Care Supplies Retail",Defiance,41.323924,-84.49048,Great Lakes,OilCrop_GreatLakes
141,Point,140,Keller Grain & Feed Inc,ohio,OH,"Greenville, Ohio 45331",1-937-448-2284,kellergrain.com,Located in Darke County,Grain Elevators,Darke,40.133276,-84.619409,Ohio,OilCrop_OhioR
142,Point,141,Pandora Grain & Supply,ohio,OH,"Pandora, Ohio 45877",1-419-384-3255,www.pandoragrain.com,Located in Putnam County,Grain Elevators,Putnam,41.022129,-84.131732,Great Lakes,OilCrop_GreatLakes
143,Point,142,Scott Equity Exchange,ohio,OH,"Scott, Ohio 45886",1-419-622-6151,scottequityexchange.com,Located in Van Wert County,Grain Elevators,Van Wert,40.855415,-84.586121,Great Lakes,OilCrop_GreatLakes
144,Point,143,Bewley ConStruction LLC,missouri,MO,"Nixa, Missouri 65714",1-417-459-3777,bewleyconstruction.com,Located in Christian County,"Building Contractors, Construction Companies, Grain Elevators",Christian,36.969576,-93.188865,Arkansas-White-Red,OilCrop_ArkWhtRedR
145,Point,144,Butterfield & Associates Grain Inc,missouri,MO,"Meadville, Missouri 64659",1-660-938-4116,www.butterfieldgrain.com,Located in Linn County,"Agricultural Equipment and Supplies Retail, Farm Equipment and Supplies Dealers, Grain Elevators, Lawn and Garden Equipment and Supplies Retail, Lawn Care Supplies Retail",Linn,39.87021,-93.107206,Missouri,OilCrop_MissouriR
146,Point,145,Cameron Cooperative Elevator Association - Mill & Office,missouri,MO,"Cameron, Missouri 64429",1-816-632-2124,cameroncoop.com,Located in Clinton County,Grain Elevators,Clinton,39.60178,-94.404592,Missouri,OilCrop_MissouriR
147,Point,146,"Capital Electric Line Builders, Inc.",missouri,MO,"Riverside, Missouri 64150",1-816-389-4000,www.celbinc.com,Located in Platte County,"Building Contractors, Construction Companies, Electric Contractors, Grain Elevators",Platte,39.3803,-94.773824,Missouri,OilCrop_MissouriR
148,Point,147,Centric Projects LLC,missouri,MO,"Kansas City, Missouri 64108",1-816-389-8300,centricprojects.com,Located in Jackson County,"Builders and Contractors, Building and Home Construction, Building Contractors, Construction Companies, Construction Consulting and Management Services, Grain Elevators, Home Builders and Developers",Jackson,39.00848,-94.346142,Missouri,OilCrop_MissouriR
149,Point,148,Feed Products & Service Co,missouri,MO,"Saint Louis, Missouri 63119",1-314-843-7300,feedproducts.net,Located in St Louis City County,Grain Elevators,St. Louis,38.640542,-90.443353,Upper Mississippi,OilCrop_MissppRN
150,Point,149,Glasgow MFA Agri Service,missouri,MO,"Glasgow, Missouri 65254",1-660-338-2251,www.glasgowmfa.com,Located in Howard County,"Agricultural Equipment and Supplies Retail, Elevator Contractors, Farm Equipment and Supplies Dealers, Grain Elevators, Lawn and Garden Equipment and Supplies Retail",Howard,39.142508,-92.69628,Missouri,OilCrop_MissouriR
151,Point,150,Home Matters Alliance LLC,missouri,MO,"Saint Louis, Missouri 63122",1-314-575-8129,www.homemattersalliance.com,Located in St Louis City County,"Building Contractors, Construction Companies, Grain Elevators",St. Louis,38.640542,-90.443353,Upper Mississippi,OilCrop_MissppRN
152,Point,151,Infinite Energy Construction,missouri,MO,"Kansas City, Missouri 64145",1-816-763-7471,infiniteenergyconstruction.com/,Located in Jackson County,"Building Contractors, Construction Companies, Design and Build Contractors, Grain Elevators",Jackson,39.00848,-94.346142,Missouri,OilCrop_MissouriR
153,Point,152,K C Supply CO Inc,missouri,MO,"Kansas City, Missouri 64111",1-816-753-7676,kcsupply.com,Located in Jackson County,"Building and Home Construction, Grain Elevator Equipment and Builders, Grain Elevators",Jackson,39.00848,-94.346142,Missouri,OilCrop_MissouriR
154,Point,153,Lawson Agri Service,missouri,MO,"Lawson, Missouri 64062",1-816-296-3262,www.lathropfeed.com,Located in Ray County,"Animal Feed, Fence Materials, Grain Elevators, Pet Food and Supplies Retail, Pet Shops",Ray,39.352393,-93.989931,Missouri,OilCrop_MissouriR
155,Point,154,MFA Agri Svc-Lexington,missouri,MO,"Lexington, Missouri 64067",1-660-259-2261,lexingtonmfa.com,Located in Lafayette County,"Grain Elevators, Lawn and Garden Equipment and Supplies Retail",Lafayette,39.065561,-93.78551,Missouri,OilCrop_MissouriR
156,Point,155,Mill & Elevator Supply CO Inc,missouri,MO,"Kansas City, Missouri 64120",1-816-241-1500,www.millelevatorsupply.com,Located in Jackson County,"Building and Home Construction, Clothing Stores, Clothing Wholesale and Manufacturers, Grain Elevator Equipment and Builders, Grain Elevators, Industrial Equipment and Supplies Dealers, Safety Clothing and Equipment",Jackson,39.00848,-94.346142,Missouri,OilCrop_MissouriR
157,Point,156,Pilot Grove Cooperative Elevator,missouri,MO,"Pilot Grove, Missouri 65276",1-660-834-5412,pilotgrovecoop.com,Located in Cooper County,Grain Elevators,Cooper,38.843552,-92.810115,Missouri,OilCrop_MissouriR
158,Point,157,Robertson Construction Inc,missouri,MO,"Lake Saint Louis, Missouri 63367",1-636-236-8099,robertsonconstructioninc.com,Located in St Charles County,"Builders and Contractors, Building Contractors, Construction Companies, Grain Elevators, Real Estate Inspection Services, Roofing Contractors, Roofing Maintenance and Repair",St. Charles,38.781931,-90.674882,Upper Mississippi,OilCrop_MissppRN
159,Point,158,Seed & Farm Supply,missouri,MO,"Liberal, Missouri 64762",1-417-843-6465,seedandfarm.com,Located in Barton County,"Agricultural Equipment and Supplies Retail, Chemicals Wholesale and Manufacturers, Farm Equipment and Supplies Dealers, Grain Elevators",Barton,37.502328,-94.347133,Arkansas-White-Red,OilCrop_ArkWhtRedR
160,Point,159,Twin Peaks Contracting Inc,missouri,MO,"Saint Louis, Missouri 63119",1-314-968-0202,twinpeakscontracting.com,Located in St Louis City County,"Building Contractors, Construction Companies, Grain Elevators",St. Louis,38.640542,-90.443353,Upper Mississippi,OilCrop_MissppRN
161,Point,160,Unerstall Construction,missouri,MO,"Washington, Missouri 63090",1-636-239-7317,www.unerstallconstruction.com,Located in Franklin County,"Building Contractors, Construction Companies, Grain Elevators",Franklin,38.411127,-91.075037,Upper Mississippi,OilCrop_MissppRN
162,Point,161,Whitley Construction Co LLC,missouri,MO,"Lees Summit, Missouri 64081",1-816-524-4048,whitleyco.net,Located in Jackson County,"Building Contractors, Construction Companies, Government Contractors, Grain Elevators",Jackson,39.00848,-94.346142,Missouri,OilCrop_MissouriR
163,Point,162,Agassiz Seeds,north-dakota,ND,"West Fargo, North Dakota 58078",1-701-282-8118,www.agassizseed.com,Located in Cass County,"Building and Home Construction, Grain Elevator Equipment and Builders, Grain Elevators",Cass,46.932983,-97.248056,Nelson,OilCrop_NelsonR
164,Point,163,Alton Grain Terminal,north-dakota,ND,"Hillsboro, North Dakota 58045",1-701-636-5130,www.altonterminal.com,Located in Traill County,Grain Elevators,Traill,47.454188,-97.16162,Nelson,OilCrop_NelsonR
165,Point,164,Bottineau Farmers Elevator,north-dakota,ND,"Bottineau, North Dakota 58318",1-701-228-2294,www.bottineaufarmers.com,Located in Bottineau County,Grain Elevators,Bottineau,48.792187,-100.83333,Nelson,OilCrop_NelsonR
166,Point,165,Cando Farmers Grain & Oil Cooperative - Elevator,north-dakota,ND,"Cando, North Dakota 58324",1-701-968-4446,www.candofarmersgrainandoil.com,Located in Towner County,Grain Elevators,Towner,48.685548,-99.24579,Nelson,OilCrop_NelsonR
167,Point,166,Central Valley Bean Cooperative,north-dakota,ND,"Buxton, North Dakota 58218",1-701-847-2622,www.centralvalleybean.com,Located in Traill County,"Business Consultants and Advisors, Business Management Services, Business Services, Fruits and Vegetables Retail, Fruits and Vegetables Wholesale, Grain Elevators, Management Consultants",Traill,47.454188,-97.16162,Nelson,OilCrop_NelsonR
168,Point,167,Dakota Dry Bean Inc,north-dakota,ND,"Crary, North Dakota 58327",1-701-398-3112,dakotadrybean.com,Located in Ramsey County,Grain Elevators,Ramsey,48.268944,-98.720131,Nelson,OilCrop_NelsonR
169,Point,168,Effertz Key Ranch Inc,north-dakota,ND,"Velva, North Dakota 58790",1-701-624-5104,effertzkeyranch.com,Located in McHenry County,Grain Elevators,McHenry,48.234577,-100.63629,Nelson,OilCrop_NelsonR
170,Point,169,Farmers Union Elevator,north-dakota,ND,"New Salem, North Dakota 58563",1-701-843-7555,westriv.com,Located in Morton County,"Animal Feed, Grain Elevators",Morton,46.71607,-101.281173,Missouri,OilCrop_MissouriR
171,Point,170,Finley Farmers Grain Company,north-dakota,ND,"Finley, North Dakota 58230",1-701-524-1500,finleyfarmerselevator.com,Located in Steele County,"Business Consultants and Advisors, Business Management Services, Business Services, Grain Elevators, Lawn and Garden Equipment and Supplies Retail, Lawn Care Supplies Retail, Management Consultants",Steele,47.456175,-97.724708,Nelson,OilCrop_NelsonR
172,Point,171,Fordville CO Op Marketing Association,north-dakota,ND,"Fordville, North Dakota 58231",1-701-229-3293,fordvillecoop.com,Located in Walsh County,"Grain Elevators, Lawn and Garden Equipment and Supplies Retail",Walsh,48.369474,-97.721355,Nelson,OilCrop_NelsonR
173,Point,172,Gutter Topper OF North Dakota,north-dakota,ND,"Riverdale, North Dakota 58565",1-701-654-7694,www.guttertopperofnorthdakota.com,Located in McLean County,"Building and Home Construction, Building Contractors, Construction Companies, Grain Elevators, Home Improvement and Maintenance, Roofing Contractors, Roofing",McLean,47.60697,-101.321866,Missouri,OilCrop_MissouriR
174,Point,173,Harvey Farmers Elevator,north-dakota,ND,"Harvey, North Dakota 58341",1-701-324-2248,arthurcompanies.com,Located in Wells County,Grain Elevators,Wells,47.587531,-99.660984,Missouri,OilCrop_MissouriR
175,Point,174,James Valley Grain,north-dakota,ND,"Oakes, North Dakota 58474",1-701-742-3363,jamesvalleygrain.com,Located in Dickey County,Grain Elevators,Dickey,46.110186,-98.504678,Missouri,OilCrop_MissouriR
176,Point,175,Lorrich Industries Inc,north-dakota,ND,"Cavalier, North Dakota 58220",1-701-549-3333,lorrich.com,Located in Pembina County,"Agricultural Equipment and Supplies Retail, Farm Equipment and Supplies Dealers, Grain Bins, Grain Elevators, Metals, Sheet Metal Wholesale and Manufacturers",Pembina,48.767508,-97.551857,Nelson,OilCrop_NelsonR
177,Point,176,Maple River Grain & Agronomy,north-dakota,ND,"Casselton, North Dakota 58012",1-701-347-4465,maplerivergrain.com,Located in Cass County,Grain Elevators,Cass,46.932983,-97.248056,Nelson,OilCrop_NelsonR
178,Point,177,Martin Construction Inc,north-dakota,ND,"Dickinson, North Dakota 58601",1-701-483-3478,www.martinconstructionnd.com/,Located in Stark County,"Builders and Contractors, Building Contractors, Construction Companies, Excavation Contractors, Government Contractors, Grain Elevators",Stark,46.810691,-102.65513,Missouri,OilCrop_MissouriR
179,Point,178,Mayport Farmers Cooperative,north-dakota,ND,"Portland, North Dakota 58274",1-701-786-4263,mayportfarmers.com,Located in Traill County,Grain Elevators,Traill,47.454188,-97.16162,Nelson,OilCrop_NelsonR
180,Point,179,Powers Lake Elevator Company,north-dakota,ND,"Powers Lake, North Dakota 58773",1-701-464-5662,www.powerslakend.com,Located in Burke County,"Agricultural Equipment and Supplies Retail, Animal Feed, Farm Equipment and Supplies Dealers, Feed Concentrates and Supplements, Grain Elevators",Burke,48.791005,-102.518309,Nelson,OilCrop_NelsonR
181,Point,180,Reynolds United Cooperative,north-dakota,ND,"Reynolds, North Dakota 58275",1-701-847-2261,reynoldsunited.com,Located in Grand Forks County,"Grain Elevators, Lawn and Garden Equipment and Supplies Retail, Lawn Care Supplies Retail",Grand Forks,47.921919,-97.456983,Nelson,OilCrop_NelsonR
182,Point,181,Reynolds United Cooperative,north-dakota,ND,"Buxton, North Dakota 58218",1-701-847-2646,www.reynoldsunited.com,Located in Traill County,"Grain Bins, Grain Elevators",Traill,47.454188,-97.16162,Nelson,OilCrop_NelsonR
183,Point,182,South Central Grain,north-dakota,ND,"Napoleon, North Dakota 58561",1-701-754-2573,www.southcentralgrain.com,Located in Logan County,"Agricultural Equipment and Supplies Retail, Animal Feed, Farm Equipment and Supplies Dealers, Grain Elevators",Logan,46.457363,-99.477433,Missouri,OilCrop_MissouriR
184,Point,183,Wanzek Construction Inc,north-dakota,ND,"West Fargo, North Dakota 58078",1-701-282-6171,www.wanzek.com,Located in Cass County,"Builders and Contractors, Building Contractors, Construction Companies, Cranes, Hoisting and Rigging Services, Government Contractors, Grain Elevators",Cass,46.932983,-97.248056,Nelson,OilCrop_NelsonR
185,Point,184,Woody's Feed & Grain,north-dakota,ND,"Dickinson, North Dakota 58601",1-701-225-5161,www.woodysfeed.com,Located in Stark County,Grain Elevators,Stark,46.810691,-102.65513,Missouri,OilCrop_MissouriR
186,Point,185,A G Partners Cooperative Inc,kansas,KS,"Hiawatha, Kansas 66434",1-785-742-2196,www.agpartnerscoop.com,Located in Brown County,Grain Elevators,Brown,39.826495,-95.564215,Missouri,OilCrop_MissouriR
187,Point,186,Agmark,kansas,KS,"Beloit, Kansas 67420",1-785-738-9641,www.agmarkllc.com,Located in Mitchell County,Grain Elevators,Mitchell,39.393273,-98.209378,Missouri,OilCrop_MissouriR
188,Point,187,"Beachner Grain Inc - Elevator, St Paul Elevator",kansas,KS,"Saint Paul, Kansas 66771",1-620-449-8510,www.beachner.com,Located in Neosho County,"Agricultural Equipment and Supplies Retail, Farm Equipment and Supplies Dealers, Grain Elevators, Lawn and Garden Equipment and Supplies Retail, Lawn Care Supplies Retail",Neosho,37.558502,-95.306802,Arkansas-White-Red,OilCrop_ArkWhtRedR
189,Point,188,Continental Agra Grain Equipment,kansas,KS,"Newton, Kansas 67114",1-316-283-9602,www.continentalagra.com,Located in Harvey County,"Building and Home Construction, Grain Elevator Equipment and Builders, Grain Elevators",Harvey,38.04322,-97.427241,Arkansas-White-Red,OilCrop_ArkWhtRedR
190,Point,189,Cooperative Elevator & Supply Company,kansas,KS,"Meade, Kansas 67864",1-620-873-2161,www.meadecoop.com,Located in Meade County,"Grain Elevators, Lawn and Garden Equipment and Supplies Retail, Lawn Care Supplies Retail",Meade,37.238138,-100.36626,Arkansas-White-Red,OilCrop_ArkWhtRedR
191,Point,190,Cornerstone Agency LLC,kansas,KS,"Colby, Kansas 67701",1-785-462-3354,www.cornerstone-ag.com,Located in Thomas County,Grain Elevators,Thomas,39.350924,-101.05557,Missouri,OilCrop_MissouriR
192,Point,191,Countryside Feed LLC,kansas,KS,"Hillsboro, Kansas 67063",1-620-947-3111,www.countrysidefeed.com,Located in Marion County,"Agricultural Equipment and Supplies Retail, Animal Health, Farm Equipment and Supplies Dealers, Grain Elevators, Pet Food and Supplies Retail",Marion,38.358874,-97.096895,Arkansas-White-Red,OilCrop_ArkWhtRedR
193,Point,192,Delphos Cooperative Association Elevator,kansas,KS,"Delphos, Kansas 67436",1-785-523-4213,www.delphoscoop.com,Located in Ottawa County,"Agricultural Equipment and Supplies Retail, Farm Equipment and Supplies Dealers, Grain Elevators, Lawn and Garden Equipment and Supplies Retail",Ottawa,39.132538,-97.65022,Missouri,OilCrop_MissouriR
194,Point,193,Diversified Inc.,kansas,KS,"Shawnee, Kansas 66226",1-913-424-0244,www.kcdiversifiedcontractors.com,Located in Johnson County,"Building and Home Construction, Building Contractors, Construction Companies, Design and Build Contractors, Grain Elevators, Remodeling and Repair Contractors Commercial",Johnson,38.883773,-94.822324,Missouri,OilCrop_MissouriR
195,Point,194,Farmers CO Op Elevator,kansas,KS,"Garden Plain, Kansas 67050",1-316-535-2221,gardenplaincoop.com,Located in Sedgwick County,Grain Elevators,Sedgwick,37.684775,-97.460993,Arkansas-White-Red,OilCrop_ArkWhtRedR
196,Point,195,Farmers Cooperative,kansas,KS,"Cheney, Kansas 67025",1-316-542-3181,gardenplaincoop.com,Located in Sedgwick County,Grain Elevators,Sedgwick,37.684775,-97.460993,Arkansas-White-Red,OilCrop_ArkWhtRedR
197,Point,196,Farmers Cooperative Elevator,kansas,KS,"Halstead, Kansas 67056",1-316-835-2261,www.farcoop.com,Located in Harvey County,"Grain Elevators, Lawn and Garden Equipment and Supplies Retail, Lawn Care Supplies Retail",Harvey,38.04322,-97.427241,Arkansas-White-Red,OilCrop_ArkWhtRedR
198,Point,197,Fowler Equity EXCH FERT Department,kansas,KS,"Fowler, Kansas 67844",1-620-646-5262,fowlerequity.com,Located in Meade County,"Banks, Financial Institutions, Grain Elevators, Mortgage and Loan Banks",Meade,37.238138,-100.36626,Arkansas-White-Red,OilCrop_ArkWhtRedR
199,Point,198,Golden Belt Cooperative Association Inc,kansas,KS,"Ellis, Kansas 67637",1-785-726-3115,goldenbeltcoop.com,Located in Ellis County,Grain Elevators,Ellis,38.91474,-99.317275,Missouri,OilCrop_MissouriR
200,Point,199,Heartland Mills Inc,kansas,KS,"Marienthal, Kansas 67863",1-620-379-4472,www.heartlandmill.com,Located in Wichita County,Grain Elevators,Wichita,38.48206,-101.347393,Arkansas-White-Red,OilCrop_ArkWhtRedR
201,Point,200,Hi-Plains Cooperative Association Inc,kansas,KS,"Colby, Kansas 67701",1-785-462-3351,www.hi-plainscoop.com,Located in Thomas County,Grain Elevators,Thomas,39.350924,-101.05557,Missouri,OilCrop_MissouriR
202,Point,201,Johnson Cooperative Grain Company,kansas,KS,"Johnson, Kansas 67855",1-620-492-6210,johnsoncoop.com,Located in Stanton County,Grain Elevators,Stanton,37.563011,-101.784226,Arkansas-White-Red,OilCrop_ArkWhtRedR
203,Point,202,L Conat Construction,kansas,KS,"Dodge City, Kansas 67801",1-620-408-6784,www.conantconstructionllc.com,Located in Ford County,"Builders and Contractors, Building and Home Construction, Building Contractors, Construction Companies, Grain Elevators, Home Builders and Developers",Ford,37.691724,-99.887965,Arkansas-White-Red,OilCrop_ArkWhtRedR
204,Point,203,Lighthouse Renovation & Repair,kansas,KS,"Overland Park, Kansas 66213",1-913-205-8997,www.lighthouserenovationkc.com/,Located in Johnson County,"Bathroom Planning and Remodeling, Building and Home Construction, Building Contractors, Building Remodeling and Repair Contractors, Construction Companies, Grain Elevators, Kitchen and Bathroom Remodeling",Johnson,38.883773,-94.822324,Missouri,OilCrop_MissouriR
205,Point,204,Mc Cune Farmers Cooperative Association,kansas,KS,"Mc Cune, Kansas 66753",1-620-632-4226,mccunecoop.com,Located in Crawford County,"Agricultural Equipment and Supplies Retail, Fuels Retail, Grain Elevators, Lawn and Garden Equipment and Supplies Retail, Propane and Natural Gas",Crawford,37.507323,-94.851823,Arkansas-White-Red,OilCrop_ArkWhtRedR
206,Point,205,Mc Donald Commodities,kansas,KS,"Leawood, Kansas 66209",1-913-491-3711,mcdonaldpelz.com,Located in Johnson County,Grain Elevators,Johnson,38.883773,-94.822324,Missouri,OilCrop_MissouriR
207,Point,206,Meade Cooperative South,kansas,KS,"Meade, Kansas 67864",1-620-873-2881,meadecoop.com,Located in Meade County,Grain Elevators,Meade,37.238138,-100.36626,Arkansas-White-Red,OilCrop_ArkWhtRedR
208,Point,207,MGP Ingredients Inc,kansas,KS,"Atchison, Kansas 66002",1-913-367-1480,www.mgpingredients.com,Located in Atchison County,"Agricultural Equipment and Supplies Retail, Chemicals Dealers, Farm Equipment and Supplies Dealers, Grain Elevators",Atchison,39.531759,-95.313495,Missouri,OilCrop_MissouriR
209,Point,208,Mid Continent Industries,kansas,KS,"Newton, Kansas 67114",1-316-283-9648,www.midcontinentindustries.com,Located in Harvey County,"Agricultural Equipment and Supplies Retail, Farm Equipment and Supplies Dealers, Grain Elevators, Metals, Welding Contractors",Harvey,38.04322,-97.427241,Arkansas-White-Red,OilCrop_ArkWhtRedR
210,Point,209,Minneola Cooperative Inc,kansas,KS,"Minneola, Kansas 67865",1-620-885-4235,minneolacoop.com,Located in Clark County,Grain Elevators,Clark,37.235519,-99.820313,Arkansas-White-Red,OilCrop_ArkWhtRedR
211,Point,210,OK Company Op Grain Company,kansas,KS,"Kiowa, Kansas 67070",1-620-825-4212,okcoop.com,Located in Barber County,"Agricultural Equipment and Supplies Retail, Farm Equipment and Supplies Dealers, Grain Elevators, Lawn and Garden Equipment and Supplies Retail, Lawn Care Supplies Retail",Barber,37.228866,-98.684831,Arkansas-White-Red,OilCrop_ArkWhtRedR
212,Point,211,Opp Concrete,kansas,KS,"Wichita, Kansas 67209",1-316-944-4600,www.oppconcretewichita.com/,Located in Sedgwick County,"Building and Home Construction, Building Contractors, Construction Companies, Grain Elevators",Sedgwick,37.684775,-97.460993,Arkansas-White-Red,OilCrop_ArkWhtRedR
213,Point,212,Pawnee County Cooperative Association,kansas,KS,"Larned, Kansas 67550",1-620-285-6919,pawneecoop.com,Located in Pawnee County,"Grain Elevators, Lawn and Garden Equipment and Supplies Retail, Lawn Care Supplies Retail",Pawnee,38.181331,-99.236731,Arkansas-White-Red,OilCrop_ArkWhtRedR
214,Point,213,Premier Construction Service Inc,kansas,KS,"Derby, Kansas 67037",1-316-440-2740,www.premiercs.net,Located in Sedgwick County,"Builders and Contractors, Building and Home Construction, Building Contractors, Carpenters, Construction Companies, Framing Contractors, Grain Elevators, Roof Structures and Trusses",Sedgwick,37.684775,-97.460993,Arkansas-White-Red,OilCrop_ArkWhtRedR
215,Point,214,Pro-Ag Marketing,kansas,KS,"Kensington, Kansas 66951",1-785-476-2211,www.proagmarketing.com,Located in Smith County,"Agricultural Equipment and Supplies Retail, Farm Equipment and Supplies Dealers, Fuels Retail, Grain Elevators, Propane and Natural Gas",Smith,39.785174,-98.785478,Missouri,OilCrop_MissouriR
216,Point,215,Sherwood Construction Co Inc,kansas,KS,"Wichita, Kansas 67213",1-316-943-0211,www.sherwoodcompanies.com,Located in Sedgwick County,"Building Contractors, Construction Companies, Government Contractors, Grain Elevators",Sedgwick,37.684775,-97.460993,Arkansas-White-Red,OilCrop_ArkWhtRedR
217,Point,216,Southern Plains Cooperative,kansas,KS,"Lewis, Kansas 67552",1-620-324-5536,lewiscom.org,Located in Edwards County,"Auto Tire Shop Equipment and Supplies, Grain Elevators, Lawn and Garden Equipment and Supplies Retail",Edwards,37.887621,-99.312166,Arkansas-White-Red,OilCrop_ArkWhtRedR
218,Point,217,Stafford County Flour Mills,kansas,KS,"Hudson, Kansas 67545",1-620-458-4121,hudsoncream.com,Located in Stafford County,"Agricultural Equipment and Supplies Retail, Farm Equipment and Supplies Dealers, Grain Elevators, Lawn and Garden Equipment and Supplies Retail",Stafford,38.030988,-98.717434,Arkansas-White-Red,OilCrop_ArkWhtRedR
219,Point,218,Steinlite Corporation,kansas,KS,"Atchison, Kansas 66002",1-913-367-3945,steinlite.com,Located in Atchison County,"Agricultural Equipment and Supplies Retail, Farm Equipment and Supplies Dealers, Grain Elevators, Industrial Equipment and Supplies Dealers, Industrial Equipment and Supplies Wholesale and Manufacturers",Atchison,39.531759,-95.313495,Missouri,OilCrop_MissouriR
220,Point,219,United Prairie Agency LLC,kansas,KS,"Lakin, Kansas 67860",1-620-355-6361,unitedpag.com,Located in Kearny County,"Agricultural Equipment and Supplies Retail, Farm Equipment and Supplies Dealers, Fuel Oils, Grain Elevators, Petroleum Products and Equipment",Kearny,38.000239,-101.319892,Arkansas-White-Red,OilCrop_ArkWhtRedR
221,Point,220,Wildcat Construction Co Inc,kansas,KS,"Wichita, Kansas 67209",1-316-945-9408,wildcatcompanies.com,Located in Sedgwick County,"Builders and Contractors, Building Contractors, Construction Companies, Government Contractors, Grain Elevators",Sedgwick,37.684775,-97.460993,Arkansas-White-Red,OilCrop_ArkWhtRedR
222,Point,221,Woofter Construction & Irrigation,kansas,KS,"Colby, Kansas 67701",1-785-462-8653,www.woofter.com,Located in Thomas County,"Builders and Contractors, Building Contractors, Construction Companies, Grain Elevators",Thomas,39.350924,-101.05557,Missouri,OilCrop_MissouriR
223,Point,222,Dakota Plains AG Center,south-dakota,SD,"Parkston, South Dakota 57366",1-605-935-6791,www.dakotaplainsag.com,Located in Hutchinson County,Grain Elevators,Hutchinson,43.334873,-97.754432,Missouri,OilCrop_MissouriR
224,Point,223,Farmers Cooperative Elevator,south-dakota,SD,"Rosholt, South Dakota 57260",1-605-537-4236,rosholtelevator.com,Located in Roberts County,Grain Elevators,Roberts,45.629576,-96.946107,Upper Mississippi,OilCrop_MissppRN
225,Point,224,Harrold Grain Co LLC,south-dakota,SD,"Harrold, South Dakota 57536",1-605-875-3278,www.harroldgrain.com,Located in Hughes County,Grain Elevators,Hughes,44.389027,-99.996019,Missouri,OilCrop_MissouriR
226,Point,225,Madison Farmers Elevator Company,south-dakota,SD,"Madison, South Dakota 57042",1-605-256-4584,madisonfarmerselevator.com,Located in Lake County,Grain Elevators,Lake,44.022065,-97.129366,Missouri,OilCrop_MissouriR
227,Point,226,Southeast Farmers Elevator,south-dakota,SD,"Elk Point, South Dakota 57025",1-605-356-3034,southeastfarmers.com,Located in Union County,Grain Elevators,Union,42.832582,-96.656035,Missouri,OilCrop_MissouriR
